start=new Date('2023-04-16T00:00:00.000Z').valueOf();
sats=[{"SITE":"AFWTR","MEAN_ELEMENT_THEORY":"SGP4","RA_OF_ASC_NODE":"203.2677","MEAN_MOTION_DOT":"0.00000769","MEAN_MOTION_DDOT":"0.0000000000000","BSTAR":"0.00006638800000","ELEMENT_SET_NO":"999","REF_FRAME":"TEME","PERIAPSIS":"538.987","EPOCH":"2023-04-15T15:55:54.143904","OBJECT_NAME":"STARLINK-3958","MEAN_ANOMALY":"261.1158","SEMIMAJOR_AXIS":"6917.869","OBJECT_TYPE":"PAYLOAD","FILE":"3888171","TIME_SYSTEM":"UTC","CLASSIFICATION_TYPE":"U","GP_ID":"230131420","RCS_SIZE":"LARGE","CENTER_NAME":"EARTH","LAUNCH_DATE":"2022-05-13","ECCENTRICITY":"0.00010800","DECAY_DATE":null,"NORAD_CAT_ID":"52535","ARG_OF_PERICENTER":"98.9956","OBJECT_ID":"2022-051C","PERIOD":"95.437","COUNTRY_CODE":"US","TLE_LINE1":"1 52535U 22051C   23105.66382111  .00000769  00000-0  66388-4 0  9996","APOAPSIS":"540.481","EPHEMERIS_TYPE":"0","INCLINATION":"53.2159","REV_AT_EPOCH":"5156","TLE_LINE2":"2 52535  53.2159 203.2677 0001080  98.9956 261.1158 15.08843720 51568","MEAN_MOTION":"15.08843720"},{"REF_FRAME":"TEME","ELEMENT_SET_NO":"999","PERIAPSIS":"538.554","RA_OF_ASC_NODE":"203.5884","MEAN_MOTION_DDOT":"0.0000000000000","MEAN_MOTION_DOT":"0.00007935","BSTAR":"0.00051608000000","SITE":"AFWTR","MEAN_ELEMENT_THEORY":"SGP4","CLASSIFICATION_TYPE":"U","GP_ID":"230131672","OBJECT_TYPE":"PAYLOAD","FILE":"3888171","TIME_SYSTEM":"UTC","OBJECT_NAME":"STARLINK-3964","MEAN_ANOMALY":"286.1812","SEMIMAJOR_AXIS":"6917.876","EPOCH":"2023-04-15T14:15:13.188960","ARG_OF_PERICENTER":"73.9369","PERIOD":"95.437","OBJECT_ID":"2022-051D","COUNTRY_CODE":"US","DECAY_DATE":null,"NORAD_CAT_ID":"52536","RCS_SIZE":"LARGE","ECCENTRICITY":"0.00017160","LAUNCH_DATE":"2022-05-13","CENTER_NAME":"EARTH","MEAN_MOTION":"15.08841443","TLE_LINE2":"2 52536  53.2149 203.5884 0001716  73.9369 286.1812 15.08841443 51551","TLE_LINE1":"1 52536U 22051D   23105.59390265  .00007935  00000-0  51608-3 0  9998","EPHEMERIS_TYPE":"0","APOAPSIS":"540.928","INCLINATION":"53.2149","REV_AT_EPOCH":"5155"},{"TLE_LINE2":"2 52537  53.2165 203.6010 0001284 100.5357 259.5780 15.08857305 51558","MEAN_MOTION":"15.08857305","REV_AT_EPOCH":"5155","EPHEMERIS_TYPE":"0","TLE_LINE1":"1 52537U 22051E   23105.59020824  .00001331  00000-0  10166-3 0  9998","APOAPSIS":"540.581","INCLINATION":"53.2165","COUNTRY_CODE":"US","ARG_OF_PERICENTER":"100.5357","OBJECT_ID":"2022-051E","PERIOD":"95.436","LAUNCH_DATE":"2022-05-13","ECCENTRICITY":"0.00012840","CENTER_NAME":"EARTH","RCS_SIZE":"LARGE","DECAY_DATE":null,"NORAD_CAT_ID":"52537","FILE":"3888171","OBJECT_TYPE":"PAYLOAD","TIME_SYSTEM":"UTC","CLASSIFICATION_TYPE":"U","GP_ID":"230131919","EPOCH":"2023-04-15T14:09:53.991936","SEMIMAJOR_AXIS":"6917.827","MEAN_ANOMALY":"259.5780","OBJECT_NAME":"STARLINK-3897","PERIAPSIS":"538.804","ELEMENT_SET_NO":"999","REF_FRAME":"TEME","MEAN_ELEMENT_THEORY":"SGP4","SITE":"AFWTR","MEAN_MOTION_DOT":"0.00001331","MEAN_MOTION_DDOT":"0.0000000000000","BSTAR":"0.00010166000000","RA_OF_ASC_NODE":"203.6010"},{"OBJECT_NAME":"STARLINK-3933","MEAN_ANOMALY":"286.3772","SEMIMAJOR_AXIS":"6917.783","EPOCH":"2023-04-15T15:34:40.312416","GP_ID":"230131171","CLASSIFICATION_TYPE":"U","TIME_SYSTEM":"UTC","FILE":"3888171","OBJECT_TYPE":"PAYLOAD","RA_OF_ASC_NODE":"203.3323","BSTAR":"0.00024913000000","MEAN_MOTION_DDOT":"0.0000000000000","MEAN_MOTION_DOT":"0.00003683","SITE":"AFWTR","MEAN_ELEMENT_THEORY":"SGP4","REF_FRAME":"TEME","ELEMENT_SET_NO":"999","PERIAPSIS":"538.978","INCLINATION":"53.2167","APOAPSIS":"540.317","TLE_LINE1":"1 52538U 22051F   23105.64907769  .00003683  00000-0  24913-3 0  9994","EPHEMERIS_TYPE":"0","REV_AT_EPOCH":"5156","MEAN_MOTION":"15.08871966","TLE_LINE2":"2 52538  53.2167 203.3323 0000968  73.7327 286.3772 15.08871966 51560","DECAY_DATE":null,"NORAD_CAT_ID":"52538","RCS_SIZE":"LARGE","ECCENTRICITY":"0.00009680","LAUNCH_DATE":"2022-05-13","CENTER_NAME":"EARTH","OBJECT_ID":"2022-051F","PERIOD":"95.436","ARG_OF_PERICENTER":"73.7327","COUNTRY_CODE":"US"},{"PERIAPSIS":"538.849","ELEMENT_SET_NO":"999","REF_FRAME":"TEME","BSTAR":"0.00015163000000","MEAN_MOTION_DDOT":"0.0000000000000","MEAN_MOTION_DOT":"0.00002127","RA_OF_ASC_NODE":"203.6197","MEAN_ELEMENT_THEORY":"SGP4","SITE":"AFWTR","GP_ID":"230130922","CLASSIFICATION_TYPE":"U","TIME_SYSTEM":"UTC","OBJECT_TYPE":"PAYLOAD","FILE":"3888171","SEMIMAJOR_AXIS":"6917.860","MEAN_ANOMALY":"268.9616","OBJECT_NAME":"STARLINK-3757","EPOCH":"2023-04-15T14:04:36.480576","COUNTRY_CODE":"US","OBJECT_ID":"2022-051G","PERIOD":"95.437","ARG_OF_PERICENTER":"91.1521","DECAY_DATE":null,"NORAD_CAT_ID":"52539","CENTER_NAME":"EARTH","LAUNCH_DATE":"2022-05-13","ECCENTRICITY":"0.00012660","RCS_SIZE":"LARGE","MEAN_MOTION":"15.08846726","TLE_LINE2":"2 52539  53.2163 203.6197 0001266  91.1521 268.9616 15.08846726 51559","REV_AT_EPOCH":"5155","INCLINATION":"53.2163","TLE_LINE1":"1 52539U 22051G   23105.58653334  .00002127  00000-0  15163-3 0  9993","APOAPSIS":"540.601","EPHEMERIS_TYPE":"0"},{"INCLINATION":"53.2155","TLE_LINE1":"1 52540U 22051H   23105.50557410  .00021676  00000-0  13750-2 0  9994","EPHEMERIS_TYPE":"0","APOAPSIS":"540.281","REV_AT_EPOCH":"5154","TLE_LINE2":"2 52540  53.2155 203.9824 0000870 105.2625 254.8464 15.08861629 51547","MEAN_MOTION":"15.08861629","RCS_SIZE":"LARGE","ECCENTRICITY":"0.00008700","LAUNCH_DATE":"2022-05-13","CENTER_NAME":"EARTH","DECAY_DATE":null,"NORAD_CAT_ID":"52540","OBJECT_ID":"2022-051H","PERIOD":"95.436","ARG_OF_PERICENTER":"105.2625","COUNTRY_CODE":"US","EPOCH":"2023-04-15T12:08:01.602240","OBJECT_NAME":"STARLINK-3940","SEMIMAJOR_AXIS":"6917.814","MEAN_ANOMALY":"254.8464","TIME_SYSTEM":"UTC","OBJECT_TYPE":"PAYLOAD","FILE":"3887974","GP_ID":"230100409","CLASSIFICATION_TYPE":"U","SITE":"AFWTR","MEAN_ELEMENT_THEORY":"SGP4","RA_OF_ASC_NODE":"203.9824","BSTAR":"0.00137500000000","MEAN_MOTION_DDOT":"0.0000000000000","MEAN_MOTION_DOT":"0.00021676","ELEMENT_SET_NO":"999","REF_FRAME":"TEME","PERIAPSIS":"539.077"},{"MEAN_ELEMENT_THEORY":"SGP4","SITE":"AFWTR","MEAN_MOTION_DDOT":"0.0000000000000","MEAN_MOTION_DOT":"0.00016673","BSTAR":"0.00106210000000","RA_OF_ASC_NODE":"208.5302","PERIAPSIS":"538.756","REF_FRAME":"TEME","ELEMENT_SET_NO":"999","EPOCH":"2023-04-15T14:33:04.739904","MEAN_ANOMALY":"284.1750","SEMIMAJOR_AXIS":"6917.767","OBJECT_NAME":"STARLINK-3845","FILE":"3888171","OBJECT_TYPE":"PAYLOAD","TIME_SYSTEM":"UTC","CLASSIFICATION_TYPE":"U","GP_ID":"230132419","LAUNCH_DATE":"2022-05-13","CENTER_NAME":"EARTH","ECCENTRICITY":"0.00012660","RCS_SIZE":"LARGE","NORAD_CAT_ID":"52541","DECAY_DATE":null,"COUNTRY_CODE":"US","ARG_OF_PERICENTER":"75.9383","OBJECT_ID":"2022-051J","PERIOD":"95.435","REV_AT_EPOCH":"5148","APOAPSIS":"540.508","TLE_LINE1":"1 52541U 22051J   23105.60630486  .00016673  00000-0  10621-2 0  9996","EPHEMERIS_TYPE":"0","INCLINATION":"53.2161","TLE_LINE2":"2 52541  53.2161 208.5302 0001266  75.9383 284.1750 15.08877107 51486","MEAN_MOTION":"15.08877107"},{"TLE_LINE2":"2 52542  53.2148 203.7016 0001286 111.5944 248.5185 15.08842909 51559","MEAN_MOTION":"15.08842909","APOAPSIS":"540.626","TLE_LINE1":"1 52542U 22051K   23105.56814069  .00014109  00000-0  90271-3 0  9995","EPHEMERIS_TYPE":"0","INCLINATION":"53.2148","REV_AT_EPOCH":"5155","ARG_OF_PERICENTER":"111.5944","OBJECT_ID":"2022-051K","PERIOD":"95.437","COUNTRY_CODE":"US","RCS_SIZE":"LARGE","LAUNCH_DATE":"2022-05-13","CENTER_NAME":"EARTH","ECCENTRICITY":"0.00012860","DECAY_DATE":null,"NORAD_CAT_ID":"52542","OBJECT_TYPE":"PAYLOAD","FILE":"3887974","TIME_SYSTEM":"UTC","CLASSIFICATION_TYPE":"U","GP_ID":"230099409","EPOCH":"2023-04-15T13:38:07.355616","OBJECT_NAME":"STARLINK-3937","SEMIMAJOR_AXIS":"6917.871","MEAN_ANOMALY":"248.5185","REF_FRAME":"TEME","ELEMENT_SET_NO":"999","PERIAPSIS":"538.847","SITE":"AFWTR","MEAN_ELEMENT_THEORY":"SGP4","RA_OF_ASC_NODE":"203.7016","MEAN_MOTION_DDOT":"0.0000000000000","MEAN_MOTION_DOT":"0.00014109","BSTAR":"0.00090271000000"},{"ARG_OF_PERICENTER":"93.3042","PERIOD":"95.437","OBJECT_ID":"2022-051L","COUNTRY_CODE":"US","RCS_SIZE":"LARGE","CENTER_NAME":"EARTH","LAUNCH_DATE":"2022-05-13","ECCENTRICITY":"0.00010640","NORAD_CAT_ID":"52543","DECAY_DATE":null,"TLE_LINE2":"2 52543  53.2151 203.0562 0001064  93.3042 266.8072 15.08844074 51578","MEAN_MOTION":"15.08844074","TLE_LINE1":"1 52543U 22051L   23105.71165846  .00000314  00000-0  37791-4 0  9997","EPHEMERIS_TYPE":"0","APOAPSIS":"540.469","INCLINATION":"53.2151","REV_AT_EPOCH":"5157","ELEMENT_SET_NO":"999","REF_FRAME":"TEME","PERIAPSIS":"538.997","SITE":"AFWTR","MEAN_ELEMENT_THEORY":"SGP4","RA_OF_ASC_NODE":"203.0562","MEAN_MOTION_DDOT":"0.0000000000000","MEAN_MOTION_DOT":"0.00000314","BSTAR":"0.00003779100000","OBJECT_TYPE":"PAYLOAD","FILE":"3888171","TIME_SYSTEM":"UTC","CLASSIFICATION_TYPE":"U","GP_ID":"230131421","EPOCH":"2023-04-15T17:04:47.290944","OBJECT_NAME":"STARLINK-3926","MEAN_ANOMALY":"266.8072","SEMIMAJOR_AXIS":"6917.868"},{"REV_AT_EPOCH":"5150","EPHEMERIS_TYPE":"0","TLE_LINE1":"1 52544U 22051M   23105.71257360  .00023576  00000-0  14234-2 0  9991","APOAPSIS":"537.605","INCLINATION":"53.2162","TLE_LINE2":"2 52544  53.2162 207.8605 0004738  61.3064 298.8405 15.10613641 51506","MEAN_MOTION":"15.10613641","CENTER_NAME":"EARTH","LAUNCH_DATE":"2022-05-13","ECCENTRICITY":"0.00047380","RCS_SIZE":"LARGE","NORAD_CAT_ID":"52544","DECAY_DATE":null,"COUNTRY_CODE":"US","ARG_OF_PERICENTER":"61.3064","PERIOD":"95.325","OBJECT_ID":"2022-051M","EPOCH":"2023-04-15T17:06:06.359040","SEMIMAJOR_AXIS":"6912.464","MEAN_ANOMALY":"298.8405","OBJECT_NAME":"STARLINK-3944","FILE":"3888171","OBJECT_TYPE":"PAYLOAD","TIME_SYSTEM":"UTC","CLASSIFICATION_TYPE":"U","GP_ID":"230131673","MEAN_ELEMENT_THEORY":"SGP4","SITE":"AFWTR","MEAN_MOTION_DOT":"0.00023576","MEAN_MOTION_DDOT":"0.0000000000000","BSTAR":"0.00142340000000","RA_OF_ASC_NODE":"207.8605","PERIAPSIS":"531.054","ELEMENT_SET_NO":"999","REF_FRAME":"TEME"}];
